[{"OBJECT_NAME":"STARLINK-4520","OBJECT_ID":"2022-097N","EPOCH":"2026-03-09T12:51:27.703584","MEAN_MOTION":15.08847822,"ECCENTRICITY":0.00013658,"INCLINATION":53.2168,"RA_OF_ASC_NODE":124.8157,"ARG_OF_PERICENTER":63.007,"MEAN_ANOMALY":297.1062,"EPHEMERIS_TYPE":0,"CLASSIFICATION_TYPE":"U","NORAD_CAT_ID":53400,"ELEMENT_SET_NO":999,"REV_AT_EPOCH":19849,"BSTAR":8.4161493e-5,"MEAN_MOTION_DOT":1.052e-5,"MEAN_MOTION_DDOT":0},{"OBJECT_NAME":"PEGASUS DEB","OBJECT_ID":"1994-029BC","EPOCH":"2026-03-09T22:00:19.479168","MEAN_MOTION":15.02669201,"ECCENTRICITY":0.00619411,"INCLINATION":81.9229,"RA_OF_ASC_NODE":10.1044,"ARG_OF_PERICENTER":202.7728,"MEAN_ANOMALY":222.9696,"EPHEMERIS_TYPE":0,"CLASSIFICATION_TYPE":"U","NORAD_CAT_ID":24007,"ELEMENT_SET_NO":999,"REV_AT_EPOCH":60998,"BSTAR":0.00034526552,"MEAN_MOTION_DOT":4.826e-5,"MEAN_MOTION_DDOT":0}]
